{
  "norad_id": 59743,
  "name": "STARLINK-31809",
  "history": [
    {
      "epoch": "2026-03-28T16:03:21.058272",
      "apogee_km": 483.64970359587915,
      "perigee_km": 482.4625799584892,
      "latitude_deg": -35.05992277090412,
      "longitude_deg": -141.47660192009062,
      "semi_major_axis_km": 6861.193141777184,
      "eccentricity": 8.651e-05,
      "inclination_deg": 43.0055,
      "raan_deg": 69.3132,
      "arg_perigee_deg": 242.923,
      "mean_anomaly_deg": 117.1534,
      "mean_motion_rev_day": 15.27577647
    }
  ]
}